COMMENT,ORIGINATOR,NORAD_CAT_ID,OBJECT_NAME,OBJECT_TYPE,CLASSIFICATION_TYPE,INTLDES,EPOCH,EPOCH_MICROSECONDS,MEAN_MOTION,ECCENTRICITY,INCLINATION,RA_OF_ASC_NODE,ARG_OF_PERICENTER,MEAN_ANOMALY,EPHEMERIS_TYPE,ELEMENT_SET_NO,REV_AT_EPOCH,BSTAR,MEAN_MOTION_DOT,MEAN_MOTION_DDOT,FILE,TLE_LINE0,TLE_LINE1,TLE_LINE2,OBJECT_ID,OBJECT_NUMBER,SEMIMAJOR_AXIS,PERIOD,APOGEE,PERIGEE,DECAYED,date
GENERATED VIA SPACETRACK.ORG API,18 SPCS,52181,SPACEBEE-131,PAYLOAD,U,22033AA,2023/2/5 18:09,99776,15.31785137,0.0007304,97.3624,120.065,276.535,83.506,0,999,4726,0.00097606,0.00029985,0,3774172,0 SPACEBEE-131,1 52181U 22033AA  23036.75643634  .00029985  00000-0  97606-3 0  9993,2 52181  97.3624 120.0650 0007304 276.5350  83.5060 15.31785137 47268,2022-033AA,52181,6848.623,94.008,475.49,465.486,1,2023/3/11
GENERATED VIA SPACETRACK.ORG API,18 SPCS,52181,SPACEBEE-131,PAYLOAD,U,22033AA,2023/2/6 5:07,507712,15.31820625,0.0007313,97.3621,120.5194,274.7989,85.2417,0,999,4731,0.001201,0.00036987,0,3774699,0 SPACEBEE-131,1 52181U 22033AA  23037.21370958  .00036987  00000-0  12010-2 0  9996,2 52181  97.3621 120.5194 0007313 274.7989  85.2417 15.31820625 47314,2022-033AA,52181,6848.517,94.006,475.391,465.374,1,2023/3/12
GENERATED VIA SPACETRACK.ORG API,18 SPCS,52181,SPACEBEE-131,PAYLOAD,U,22033AA,2023/2/6 5:07,507712,15.31820625,0.0007313,97.3621,120.5194,274.7989,85.2417,0,999,4733,0.001201,0.00036987,0,3775254,0 SPACEBEE-131,1 52181U 22033AA  23037.21370958  .00036987  00000-0  12010-2 0  9996,2 52181  97.3621 120.5194 0007313 274.7989  85.2417 15.31820625 47336,2022-033AA,52181,6848.517,94.006,475.391,465.374,1,2023/3/13
GENERATED VIA SPACETRACK.ORG API,18 SPCS,52181,SPACEBEE-131,PAYLOAD,U,22033AA,2023/2/6 19:14,645728,15.31868659,0.0007327,97.3619,121.1034,272.7919,87.2484,0,999,4742,0.0012914,0.00039852,0,3776034,0 SPACEBEE-131,1 52181U 22033AA  23037.80161627  .00039852  00000-0  12914-2 0  9999,2 52181  97.3619 121.1034 0007327 272.7919  87.2484 15.31868659 47424,2022-033AA,52181,6848.374,94.003,475.257,465.221,1,2023/3/14
GENERATED VIA SPACETRACK.ORG API,18 SPCS,52181,SPACEBEE-131,PAYLOAD,U,22033AA,2023/2/7 4:38,87552,15.31909662,0.000735,97.3617,121.4928,271.3415,88.6985,0,999,4746,0.0015736,0.00048696,0,3776607,0 SPACEBEE-131,1 52181U 22033AA  23038.19354268  .00048696  00000-0  15736-2 0  9998,2 52181  97.3617 121.4928 0007350 271.3415  88.6985 15.31909662 47464,2022-033AA,52181,6848.252,94,475.151,465.084,1,2023/3/15
GENERATED VIA SPACETRACK.ORG API,18 SPCS,52181,SPACEBEE-131,PAYLOAD,U,22033AA,2023/2/7 4:38,87552,15.31909662,0.000735,97.3617,121.4928,271.3415,88.6985,0,999,4748,0.0015736,0.00048696,0,3777208,0 SPACEBEE-131,1 52181U 22033AA  23038.19354268  .00048696  00000-0  15736-2 0  9998,2 52181  97.3617 121.4928 0007350 271.3415  88.6985 15.31909662 47486,2022-033AA,52181,6848.252,94,475.151,465.084,1,2023/3/16
GENERATED VIA SPACETRACK.ORG API,18 SPCS,52181,SPACEBEE-131,PAYLOAD,U,22033AA,2023/2/7 18:45,209344,15.31965208,0.0007357,97.3616,122.0768,269.1585,90.8813,0,999,4757,0.0015492,0.00048018,0,3777976,0 SPACEBEE-131,1 52181U 22033AA  23038.78141446  .00048018  00000-0  15492-2 0  9992,2 52181  97.3616 122.0768 0007357 269.1585  90.8813 15.31965208 47577,2022-033AA,52181,6848.087,93.997,474.99,464.913,1,2023/3/17
GENERATED VIA SPACETRACK.ORG API,18 SPCS,52181,SPACEBEE-131,PAYLOAD,U,22033AA,2023/2/8 4:09,414272,15.32008439,0.0007362,97.3612,122.4665,267.482,92.5579,0,999,4763,0.0016126,0.00050068,0,3780324,0 SPACEBEE-131,1 52181U 22033AA  23039.17331498  .00050068  00000-0  16126-2 0  9997,2 52181  97.3612 122.4665 0007362 267.4820  92.5579 15.32008439 47632,2022-033AA,52181,6847.958,93.994,474.864,464.781,1,2023/3/18
GENERATED VIA SPACETRACK.ORG API,18 SPCS,52181,SPACEBEE-131,PAYLOAD,U,22033AA,2023/2/8 16:41,891712,15.32069291,0.000735,97.3613,122.986,265.5659,94.4743,0,999,4769,0.0017446,0.00054305,0,3780524,0 SPACEBEE-131,1 52181U 22033AA  23039.69583208  .00054305  00000-0  17446-2 0  9996,2 52181  97.3613 122.9860 0007350 265.5659  94.4743 15.32069291 47694,2022-033AA,52181,6847.776,93.991,474.674,464.608,1,2023/3/19
GENERATED VIA SPACETRACK.ORG API,18 SPCS,52181,SPACEBEE-131,PAYLOAD,U,22033AA,2023/2/8 16:41,891712,15.32069291,0.000735,97.3613,122.986,265.5659,94.4743,0,999,4771,0.0017446,0.00054305,0,3780893,0 SPACEBEE-131,1 52181U 22033AA  23039.69583208  .00054305  00000-0  17446-2 0  9996,2 52181  97.3613 122.9860 0007350 265.5659  94.4743 15.32069291 47717,2022-033AA,52181,6847.776,93.991,474.674,464.608,1,2023/3/20
GENERATED VIA SPACETRACK.ORG API,18 SPCS,52181,SPACEBEE-131,PAYLOAD,U,22033AA,2023/2/9 5:14,694720,15.32129244,0.0007325,97.361,123.5047,262.8459,97.195,0,999,4779,0.0016858,0.00052558,0,3782313,0 SPACEBEE-131,1 52181U 22033AA  23040.21832980  .00052558  00000-0  16858-2 0  9994,2 52181  97.3610 123.5047 0007325 262.8459  97.1950 15.32129244 47791,2022-033AA,52181,6847.598,93.987,474.479,464.447,1,2023/3/21
GENERATED VIA SPACETRACK.ORG API,18 SPCS,52181,SPACEBEE-131,PAYLOAD,U,22033AA,2023/2/9 19:20,431040,15.32191859,0.0007293,97.36,124.0892,261.194,98.8476,0,999,4786,0.0018032,0.00056361,0,3783013,0 SPACEBEE-131,1 52181U 22033AA  23040.80611610  .00056361  00000-0  18032-2 0  9996,2 52181  97.3600 124.0892 0007293 261.1940  98.8476 15.32191859 47865,2022-033AA,52181,6847.411,93.983,474.27,464.282,1,2023/3/22
GENERATED VIA SPACETRACK.ORG API,18 SPCS,52181,SPACEBEE-131,PAYLOAD,U,22033AA,2023/2/10 6:19,32064,15.32253601,0.0007426,97.3598,124.5434,259.202,100.8386,0,999,4793,0.002152,0.00067509,0,3784769,0 SPACEBEE-131,1 52181U 22033AA  23041.26326426  .00067509  00000-0  21520-2 0  9997,2 52181  97.3598 124.5434 0007426 259.2020 100.8386 15.32253601 47939,2022-033AA,52181,6847.227,93.979,474.177,464.007,1,2023/3/23
GENERATED VIA SPACETRACK.ORG API,18 SPCS,52181,SPACEBEE-131,PAYLOAD,U,22033AA,2023/2/10 6:19,32064,15.32253601,0.0007426,97.3598,124.5434,259.202,100.8386,0,999,4795,0.002152,0.00067509,0,3785071,0 SPACEBEE-131,1 52181U 22033AA  23041.26326426  .00067509  00000-0  21520-2 0  9997,2 52181  97.3598 124.5434 0007426 259.2020 100.8386 15.32253601 47951,2022-033AA,52181,6847.227,93.979,474.177,464.007,1,2023/3/24
GENERATED VIA SPACETRACK.ORG API,18 SPCS,52181,SPACEBEE-131,PAYLOAD,U,22033AA,2023/2/11 4:15,588384,15.32384418,0.0007466,97.36,125.4521,256.194,103.8472,0,999,4809,0.0022762,0.00071742,0,3786144,0 SPACEBEE-131,1 52181U 22033AA  23042.17750681  .00071742  00000-0  22762-2 0  9995,2 52181  97.3600 125.4521 0007466 256.1940 103.8472 15.32384418 48099,2022-033AA,52181,6846.838,93.971,473.814,463.591,1,2023/3/25
GENERATED VIA SPACETRACK.ORG API,18 SPCS,52181,SPACEBEE-131,PAYLOAD,U,22033AA,2023/2/11 4:15,588384,15.32384418,0.0007466,97.36,125.4521,256.194,103.8472,0,999,4807,0.0022762,0.00071742,0,3787333,0 SPACEBEE-131,1 52181U 22033AA  23042.17750681  .00071742  00000-0  22762-2 0  9995,2 52181  97.3600 125.4521 0007466 256.1940 103.8472 15.32384418 48077,2022-033AA,52181,6846.838,93.971,473.814,463.591,1,2023/3/26
GENERATED VIA SPACETRACK.ORG API,18 SPCS,52181,SPACEBEE-131,PAYLOAD,U,22033AA,2023/2/12 19:26,143296,15.32568645,0.0007388,97.3593,127.076,250.373,109.6715,0,999,4832,0.0019095,0.00060428,0,3788097,0 SPACEBEE-131,1 52181U 22033AA  23043.80992064  .00060428  00000-0  19095-2 0  9993,2 52181  97.3593 127.0760 0007388 250.3730 109.6715 15.32568645 48325,2022-033AA,52181,6846.289,93.96,473.212,463.096,1,2023/3/27
GENERATED VIA SPACETRACK.ORG API,18 SPCS,52181,SPACEBEE-131,PAYLOAD,U,22033AA,2023/2/13 6:24,131456,15.3262453,0.0007442,97.3594,127.5305,248.3769,111.6681,0,999,4841,0.0018092,0.00057328,0,3789366,0 SPACEBEE-131,1 52181U 22033AA  23044.26695754  .00057328  00000-0  18092-2 0  9991,2 52181  97.3594 127.5305 0007442 248.3769 111.6681 15.32624530 48417,2022-033AA,52181,6846.122,93.956,473.082,462.893,1,2023/3/28
GENERATED VIA SPACETRACK.ORG API,18 SPCS,52181,SPACEBEE-131,PAYLOAD,U,22033AA,2023/2/13 18:56,635968,15.32680781,0.0007468,97.3593,128.0503,247.2373,112.808,0,999,4847,0.0017545,0.00055678,0,3791311,0 SPACEBEE-131,1 52181U 22033AA  23044.78926662  .00055678  00000-0  17545-2 0  9991,2 52181  97.3593 128.0503 0007468 247.2373 112.8080 15.32680781 48471,2022-033AA,52181,6845.955,93.953,472.932,462.707,1,2023/3/29
GENERATED VIA SPACETRACK.ORG API,18 SPCS,52181,SPACEBEE-131,PAYLOAD,U,22033AA,2023/2/13 18:56,635968,15.32680781,0.0007468,97.3593,128.0503,247.2373,112.808,0,999,4849,0.0017545,0.00055678,0,3791349,0 SPACEBEE-131,1 52181U 22033AA  23044.78926662  .00055678  00000-0  17545-2 0  9991,2 52181  97.3593 128.0503 0007468 247.2373 112.8080 15.32680781 48493,2022-033AA,52181,6845.955,93.953,472.932,462.707,1,2023/3/30
GENERATED VIA SPACETRACK.ORG API,18 SPCS,52181,SPACEBEE-131,PAYLOAD,U,22033AA,2023/2/15 5:24,562528,15.32843804,0.0007421,97.36,129.4792,241.5403,118.5092,0,999,4869,0.001797,0.00057333,0,3792834,0 SPACEBEE-131,1 52181U 22033AA  23046.22551577  .00057333  00000-0  17970-2 0  9993,2 52181  97.3600 129.4792 0007421 241.5403 118.5092 15.32843804 48692,2022-033AA,52181,6845.469,93.943,472.415,462.254,1,2023/3/31
GENERATED VIA SPACETRACK.ORG API,18 SPCS,52181,SPACEBEE-131,PAYLOAD,U,22033AA,2023/2/15 11:40,311520,15.32870124,0.0007389,97.3601,129.7394,240.7867,119.2637,0,999,4875,0.0018622,0.00059481,0,3793706,0 SPACEBEE-131,1 52181U 22033AA  23046.48663555  .00059481  00000-0  18622-2 0  9992,2 52181  97.3601 129.7394 0007389 240.7867 119.2637 15.32870124 48757,2022-033AA,52181,6845.391,93.941,472.314,462.198,1,2023/4/1
GENERATED VIA SPACETRACK.ORG API,18 SPCS,52181,SPACEBEE-131,PAYLOAD,U,22033AA,2023/2/15 19:30,487872,15.32920163,0.0007396,97.3599,130.0636,239.6429,120.4082,0,999,4880,0.0021335,0.00068344,0,3795153,0 SPACEBEE-131,1 52181U 22033AA  23046.81302648  .00068344  00000-0  21335-2 0  9995,2 52181  97.3599 130.0636 0007396 239.6429 120.4082 15.32920163 48809,2022-033AA,52181,6845.242,93.938,472.17,462.044,1,2023/4/2
